ORBCOMM FM103 [+]       
1 40091U 14040F   23306.65726606  .00001106  00000+0  28652-3 0  9998
2 40091  47.0063 291.0886 0001112  65.5304 294.5697 14.56021512477690
ORBCOMM FM114 [+]       
1 41179U 15081A   23306.96696297  .00001376  00000+0  34698-3 0  9994
2 41179  47.0025 198.9806 0001365 152.3879 207.7079 14.56040728418106
ORBCOMM FM119 [-]       
1 41180U 15081B   23306.72853591  .00001077  00000+0  28006-3 0  9996
2 41180  46.9995 109.2936 0001976 227.0161 133.0559 14.56014688419328
ORBCOMM FM105 [-]       
1 41181U 15081C   23306.57141986  .00000556  00000+0  20644-3 0  9999
2 41181  47.0020  59.7712 0002241 203.4248 156.6530 14.44079862415060
ORBCOMM FM110 [+]       
1 41182U 15081D   23306.80665461  .00001473  00000+0  36879-3 0  9991
2 41182  47.0014 199.1590 0002115 333.0948  26.9827 14.56049322417953
ORBCOMM FM118 [+]       
1 41183U 15081E   23306.85250177  .00001466  00000+0  36709-3 0  9995
2 41183  47.0036 199.2104 0002341 330.8327  29.2426 14.56053538418065
ORBCOMM FM112 [+]       
1 41184U 15081F   23306.56925452  .00001305  00000+0  33117-3 0  9991
2 41184  46.9979 109.2968 0001937 207.9569 152.1212 14.56014157419245
ORBCOMM FM113 [+]       
1 41185U 15081G   23306.81982404  .00003081  00000+0  73084-3 0  9990
2 41185  46.9985 108.3412 0001799 228.5279 131.5451 14.56002757419261
